{
    "links": {
        "self": "http://www.neowsapp.com/rest/v1/neo/3759257?api_key=iIulBulltgU6a56xZRHN4H3l9WmuAYTsLGpBGhQ2"
    },
    "id": "3759257",
    "neo_reference_id": "3759257",
    "name": "(2016 RC18)",
    "designation": "2016 RC18",
    "nasa_jpl_url": "http://ssd.jpl.nasa.gov/sbdb.cgi?sstr=3759257",
    "absolute_magnitude_h": 26.1,
    "estimated_diameter": {
        "kilometers": {
            "estimated_diameter_min": 0.0160160338,
            "estimated_diameter_max": 0.0358129403
        },
        "meters": {
            "estimated_diameter_min": 16.0160337979,
            "estimated_diameter_max": 35.8129403019
        },
        "miles": {
            "estimated_diameter_min": 0.0099518989,
            "estimated_diameter_max": 0.0222531225
        },
        "feet": {
            "estimated_diameter_min": 52.5460443254,
            "estimated_diameter_max": 117.4965270602
        }
    },
    "is_potentially_hazardous_asteroid": false,
    "close_approach_data": [
        {
            "close_approach_date": "2016-05-05",
            "close_approach_date_full": "2016-May-05 08:44",
            "epoch_date_close_approach": 1462437840000,
            "relative_velocity": {
                "kilometers_per_second": "9.8669675719",
                "kilometers_per_hour": "35521.0832588836",
                "miles_per_hour": "22071.4197616102"
            },
            "miss_distance": {
                "astronomical": "0.0514921796",
                "lunar": "20.0304578644",
                "kilometers": "7703120.389817452",
                "miles": "4786497.0574147576"
            },
            "orbiting_body": "Mars"
        },
        {
            "close_approach_date": "2016-08-27",
            "close_approach_date_full": "2016-Aug-27 14:30",
            "epoch_date_close_approach": 1472308200000,
            "relative_velocity": {
                "kilometers_per_second": "7.1714440303",
                "kilometers_per_hour": "25817.1985089563",
                "miles_per_hour": "16041.8031513012"
            },
            "miss_distance": {
                "astronomical": "0.0448961866",
                "lunar": "17.4646165874",
                "kilometers": "6716373.886482542",
                "miles": "4173361.2117293996"
            },
            "orbiting_body": "Earth"
        }
    ],
    "orbital_data": {
        "orbit_id": "6",
        "orbit_determination_date": "2017-04-06 08:24:05",
        "first_observation_date": "2016-09-06",
        "last_observation_date": "2016-09-23",
        "data_arc_in_days": 17,
        "observations_used": 36,
        "orbit_uncertainty": "8",
        "minimum_orbit_intersection": ".0247344",
        "jupiter_tisserand_invariant": "3.585",
        "epoch_osculation": "2457640.5",
        "eccentricity": ".503644233942557",
        "semi_major_axis": "2.088491906394162",
        "inclination": "2.087484135557231",
        "ascending_node_longitude": "305.5595985568075",
        "orbital_period": "1102.421366066839",
        "perihelion_distance": "1.036635000103044",
        "perihelion_argument": "15.65382966227665",
        "aphelion_distance": "3.14034881268528",
        "perihelion_time": "2457617.576057248088",
        "mean_anomaly": "7.485902981118355",
        "mean_motion": ".3265539031453908",
        "equinox": "J2000",
        "orbit_class": {
            "orbit_class_type": "AMO",
            "orbit_class_description": "Near-Earth asteroid orbits similar to that of 1221 Amor",
            "orbit_class_range": "1.017 AU < q (perihelion) < 1.3 AU"
        }
    },
    "is_sentry_object": false
}